GLOBALSTAR M084         
1 38040U 11080A   24236.35675773 -.00000098  00000+0  34429-4 0  9998
2 38040  51.9983 235.1799 0000503 107.7047  31.5624 12.62266049585054
GLOBALSTAR M080         
1 38041U 11080B   24237.18829536 -.00000097  00000+0  36633-4 0  9997
2 38041  52.0036 234.1508 0000654  85.7408 354.0683 12.62264510585426
GLOBALSTAR M082         
1 38042U 11080C   24237.18716926 -.00000088  00000+0  90421-4 0  9991
2 38042  52.0059 189.5676 0000273 292.9501  81.7798 12.62265297586160
GLOBALSTAR M092         
1 38043U 11080D   24237.50743385 -.00000085  00000+0  10622-3 0  9998
2 38043  52.0076 278.9567 0000489 127.4141  23.5332 12.62265643584692
GLOBALSTAR M090         
1 38044U 11080E   24236.61469927 -.00000085  00000+0  10490-3 0  9990
2 38044  51.9870 185.5021 0000223   4.6652 167.2241 12.62266350586075
GLOBALSTAR M086         
1 38045U 11080F   24236.64074516 -.00000083  00000+0  11659-3 0  9996
2 38045  51.9880 185.9498 0001240  27.6540 143.3642 12.62265894586083
GLOBALSTAR M097         
1 39072U 13005A   24237.34267731 -.00000088  00000+0  88697-4 0  9999
2 39072  52.0048  98.0614 0000742  47.7868 312.3061 12.62269854533409
GLOBALSTAR M093         
1 39073U 13005B   24236.99894469 -.00000083  00000+0  11388-3 0  9991
2 39073  51.9809  92.8820 0000721  43.6145 316.4778 12.62263241533352
